{"type": "FeatureCollection", "features": [ {"type": "Feature", "properties": {"norad_id": 34908, "name": "COSMOS 2251 DEB", "group": "cosmos-2251-debris", "lat": 71.29807954375838, "lon": 96.72951933143196, "alt_km": 733.5763986139327, "timestamp": "2025-12-04T07:39:36.527162+00:00", "meta": {"OBJECT_NAME": "COSMOS 2251 DEB", "OBJECT_ID": "1993-036ADD", "EPOCH": "2025-12-03T22:05:15.258336", "MEAN_MOTION": 14.37358139, "ECCENTRICITY": 0.00398504, "INCLINATION": 74.0588, "RA_OF_ASC_NODE": 39.8623, "ARG_OF_PERICENTER": 58.9751, "MEAN_ANOMALY": 117.9274, "EPHEMERIS_TYPE": 0, "CLASSIFICATION_TYPE": "U", "NORAD_CAT_ID": 34908, "ELEMENT_SET_NO": 999, "REV_AT_EPOCH": 87152, "BSTAR": 0.00089543498, "MEAN_MOTION_DOT": 2.673e-05, "MEAN_MOTION_DDOT": 0}, "tle": {"line1": "1 34908U 93036ADD 25337.92031549  .00002673  00000+0  89543-3 0  9997", "line2": "2 34908  74.0588  39.8623 0039850  58.9751 117.9274 14.37358139871527"}}, "geometry": {"type": "Point", "coordinates": [96.72951933143196, 71.29807954375838]}}, {"type": "Feature", "properties": {"norad_id": 34909, "name": "COSMOS 2251 DEB", "group": "cosmos-2251-debris", "lat": 64.44920768111982, "lon": 129.97139364979824, "alt_km": 686.357743714334, "timestamp": "2025-12-04T07:39:36.527171+00:00", "meta": {"OBJECT_NAME": "COSMOS 2251 DEB", "OBJECT_ID": "1993-036ADE", "EPOCH": "2025-12-02T16:20:39.593184", "MEAN_MOTION": 14.77677518, "ECCENTRICITY": 0.00852182, "INCLINATION": 74.0135, "RA_OF_ASC_NODE": 96.3432, "ARG_OF_PERICENTER": 234.3085, "MEAN_ANOMALY": 125.0138, "EPHEMERIS_TYPE": 0, "CLASSIFICATION_TYPE": "U", "NORAD_CAT_ID": 34909, "ELEMENT_SET_NO": 999, "REV_AT_EPOCH": 66703, "BSTAR": 0.00090528683, "MEAN_MOTION_DOT": 6.857e-05, "MEAN_MOTION_DDOT": 0}, "tle": {"line1": "1 34909U 93036ADE 25336.68101381  .00006857  00000+0  90529-3 0  9996", "line2": "2 34909  74.0135  96.3432 0085218 234.3085 125.0138 14.77677518667038"}}, "geometry": {"type": "Point", "coordinates": [129.97139364979824, 64.44920768111982]}}, {"type": "Feature", "properties": {"norad_id": 34910, "name": "COSMOS 2251 DEB", "group": "cosmos-2251-debris", "lat": -42.10670311565, "lon": 99.55580789055699, "alt_km": 1052.4622901271387, "timestamp": "2025-12-04T07:39:36.527180+00:00", "meta": {"OBJECT_NAME": "COSMOS 2251 DEB", "OBJECT_ID": "1993-036ADF", "EPOCH": "2025-12-02T16:32:32.334432", "MEAN_MOTION": 13.37643089, "ECCENTRICITY": 0.0468107, "INCLINATION": 73.8742, "RA_OF_ASC_NODE": 117.2836, "ARG_OF_PERICENTER": 237.8282, "MEAN_ANOMALY": 146.7075, "EPHEMERIS_TYPE": 0, "CLASSIFICATION_TYPE": "U", "NORAD_CAT_ID": 34910, "ELEMENT_SET_NO": 999, "REV_AT_EPOCH": 81390, "BSTAR": 0.001305183, "MEAN_MOTION_DOT": 1.267e-05, "MEAN_MOTION_DDOT": 0}, "tle": {"line1": "1 34910U 93036ADF 25336.68926313  .00001267  00000+0  13052-2 0  9993", "line2": "2 34910  73.8742 117.2836 0468107 237.8282 146.7075 13.37643089813901"}}, "geometry": {"type": "Point", "coordinates": [99.55580789055699, -42.10670311565]}}, {"type": "Feature", "properties": {"norad_id": 34911, "name": "COSMOS 2251 DEB", "group": "cosmos-2251-debris", "lat": 3.016228421347177, "lon": -98.3440346373888, "alt_km": 644.170937617042, "timestamp": "2025-12-04T07:39:36.527189+00:00", "meta": {"OBJECT_NAME": "COSMOS 2251 DEB", "OBJECT_ID": "1993-036ADG", "EPOCH": "2025-12-03T06:00:27.635040", "MEAN_MOTION": 14.59344505, "ECCENTRICITY": 0.008317, "INCLINATION": 74.0412, "RA_OF_ASC_NODE": 262.8282, "ARG_OF_PERICENTER": 30.7099, "MEAN_ANOMALY": 119.8806, "EPHEMERIS_TYPE": 0, "CLASSIFICATION_TYPE": "U", "NORAD_CAT_ID": 34911, "ELEMENT_SET_NO": 999, "REV_AT_EPOCH": 88448, "BSTAR": 0.00027459, "MEAN_MOTION_DOT": 1.332e-05, "MEAN_MOTION_DDOT": 0}, "tle": {"line1": "1 34911U 93036ADG 25337.25031985  .00001332  00000+0  27459-3 0  9990", "line2": "2 34911  74.0412 262.8282 0083170  30.7099 119.8806 14.59344505884480"}}, "geometry": {"type": "Point", "coordinates": [-98.3440346373888, 3.016228421347177]}}, {"type": "Feature", "properties": {"norad_id": 34913, "name": "COSMOS 2251 DEB", "group": "cosmos-2251-debris", "lat": 33.75342964722212, "lon": -51.0352318808079, "alt_km": 759.9876167638567, "timestamp": "2025-12-04T07:39:36.527198+00:00", "meta": {"OBJECT_NAME": "COSMOS 2251 DEB", "OBJECT_ID": "1993-036ADJ", "EPOCH": "2025-12-02T16:08:10.454208", "MEAN_MOTION": 14.34632081, "ECCENTRICITY": 0.00200026, "INCLINATION": 74.0276, "RA_OF_ASC_NODE": 300.9473, "ARG_OF_PERICENTER": 54.1655, "MEAN_ANOMALY": 119.3628, "EPHEMERIS_TYPE": 0, "CLASSIFICATION_TYPE": "U", "NORAD_CAT_ID": 34913, "ELEMENT_SET_NO": 999, "REV_AT_EPOCH": 65043, "BSTAR": 7.0680463e-05, "MEAN_MOTION_DOT": 1.74e-06, "MEAN_MOTION_DDOT": 0}, "tle": {"line1": "1 34913U 93036ADJ 25336.67234322  .00000174  00000+0  70680-4 0  9995", "line2": "2 34913  74.0276 300.9473 0020002  54.1655 119.3628 14.34632081650434"}}, "geometry": {"type": "Point", "coordinates": [-51.0352318808079, 33.75342964722212]}}, {"type": "Feature", "properties": {"norad_id": 34918, "name": "COSMOS 2251 DEB", "group": "cosmos-2251-debris", "lat": 70.43203920369402, "lon": 96.23161178351687, "alt_km": 706.2171333234928, "timestamp": "2025-12-04T07:39:36.527207+00:00", "meta": {"OBJECT_NAME": "COSMOS 2251 DEB", "OBJECT_ID": "1993-036ADP", "EPOCH": "2025-12-02T07:49:20.078112", "MEAN_MOTION": 14.60858458, "ECCENTRICITY": 0.0034182, "INCLINATION": 74.0712, "RA_OF_ASC_NODE": 333.4916, "ARG_OF_PERICENTER": 302.4495, "MEAN_ANOMALY": 120.4085, "EPHEMERIS_TYPE": 0, "CLASSIFICATION_TYPE": "U", "NORAD_CAT_ID": 34918, "ELEMENT_SET_NO": 999, "REV_AT_EPOCH": 65184, "BSTAR": 0.0024749, "MEAN_MOTION_DOT": 0.00012194, "MEAN_MOTION_DDOT": 0}, "tle": {"line1": "1 34918U 93036ADP 25336.32592683  .00012194  00000+0  24749-2 0  9997", "line2": "2 34918  74.0712 333.4916 0034182 302.4495 120.4085 14.60858458651845"}}, "geometry": {"type": "Point", "coordinates": [96.23161178351687, 70.43203920369402]}}, {"type": "Feature", "properties": {"norad_id": 34924, "name": "COSMOS 2251 DEB", "group": "cosmos-2251-debris", "lat": 47.10944443086562, "lon": -92.43118963708541, "alt_km": 670.4060296701982, "timestamp": "2025-12-04T07:39:36.527215+00:00", "meta": {"OBJECT_NAME": "COSMOS 2251 DEB", "OBJECT_ID": "1993-036ADV", "EPOCH": "2025-12-03T13:33:03.347712", "MEAN_MOTION": 14.59870223, "ECCENTRICITY": 0.00552594, "INCLINATION": 74.0398, "RA_OF_ASC_NODE": 106.9505, "ARG_OF_PERICENTER": 193.7094, "MEAN_ANOMALY": 293.1783, "EPHEMERIS_TYPE": 0, "CLASSIFICATION_TYPE": "U", "NORAD_CAT_ID": 34924, "ELEMENT_SET_NO": 999, "REV_AT_EPOCH": 87589, "BSTAR": 0.0017559508, "MEAN_MOTION_DOT": 8.565e-05, "MEAN_MOTION_DDOT": 0}, "tle": {"line1": "1 34924U 93036ADV 25337.56462208  .00008565  00000+0  17560-2 0  9990", "line2": "2 34924  74.0398 106.9505 0055259 193.7094 293.1783 14.59870223875891"}}, "geometry": {"type": "Point", "coordinates": [-92.43118963708541, 47.10944443086562]}}, {"type": "Feature", "properties": {"norad_id": 34944, "name": "COSMOS 2251 DEB", "group": "cosmos-2251-debris", "lat": -5.158830423047507, "lon": 68.73629222267513, "alt_km": 842.0299179123385, "timestamp": "2025-12-04T07:39:36.527224+00:00", "meta": {"OBJECT_NAME": "COSMOS 2251 DEB", "OBJECT_ID": "1993-036ADX", "EPOCH": "2025-12-03T10:26:13.837632", "MEAN_MOTION": 14.14147852, "ECCENTRICITY": 0.02196989, "INCLINATION": 73.7497, "RA_OF_ASC_NODE": 248.822, "ARG_OF_PERICENTER": 98.0447, "MEAN_ANOMALY": 264.5682, "EPHEMERIS_TYPE": 0, "CLASSIFICATION_TYPE": "U", "NORAD_CAT_ID": 34944, "ELEMENT_SET_NO": 999, "REV_AT_EPOCH": 63951, "BSTAR": 0.00087621721, "MEAN_MOTION_DOT": 2.079e-05, "MEAN_MOTION_DDOT": 0}, "tle": {"line1": "1 34944U 93036ADX 25337.43488238  .00002079  00000+0  87622-3 0  9990", "line2": "2 34944  73.7497 248.8220 0219698  98.0447 264.5682 14.14147852639510"}}, "geometry": {"type": "Point", "coordinates": [68.73629222267513, -5.158830423047507]}}, {"type": "Feature", "properties": {"norad_id": 34946, "name": "COSMOS 2251 DEB", "group": "cosmos-2251-debris", "lat": -73.18096679731605, "lon": -73.1517567942559, "alt_km": 719.2695088604314, "timestamp": "2025-12-04T07:39:36.527233+00:00", "meta": {"OBJECT_NAME": "COSMOS 2251 DEB", "OBJECT_ID": "1993-036ADZ", "EPOCH": "2025-12-03T18:54:41.961024", "MEAN_MOTION": 14.61916973, "ECCENTRICITY": 0.00490667, "INCLINATION": 74.0235, "RA_OF_ASC_NODE": 359.265, "ARG_OF_PERICENTER": 139.3091, "MEAN_ANOMALY": 221.1759, "EPHEMERIS_TYPE": 0, "CLASSIFICATION_TYPE": "U", "NORAD_CAT_ID": 34946, "ELEMENT_SET_NO": 999, "REV_AT_EPOCH": 88078, "BSTAR": 0.00080246864, "MEAN_MOTION_DOT": 4.057e-05, "MEAN_MOTION_DDOT": 0}, "tle": {"line1": "1 34946U 93036ADZ 25337.78798566  .00004057  00000+0  80247-3 0  9992", "line2": "2 34946  74.0235 359.2650 0049066 139.3091 221.1759 14.61916973880785"}}, "geometry": {"type": "Point", "coordinates": [-73.1517567942559, -73.18096679731605]}}, {"type": "Feature", "properties": {"norad_id": 34949, "name": "COSMOS 2251 DEB", "group": "cosmos-2251-debris", "lat": 10.766141500736083, "lon": -57.01886383800409, "alt_km": 663.4260463650453, "timestamp": "2025-12-04T07:39:36.527246+00:00", "meta": {"OBJECT_NAME": "COSMOS 2251 DEB", "OBJECT_ID": "1993-036AEC", "EPOCH": "2025-12-03T03:11:45.204576", "MEAN_MOTION": 14.73888049, "ECCENTRICITY": 0.00804743, "INCLINATION": 74.0167, "RA_OF_ASC_NODE": 128.421, "ARG_OF_PERICENTER": 275.6913, "MEAN_ANOMALY": 83.5088, "EPHEMERIS_TYPE": 0, "CLASSIFICATION_TYPE": "U", "NORAD_CAT_ID": 34949, "ELEMENT_SET_NO": 999, "REV_AT_EPOCH": 88220, "BSTAR": 0.00069404332, "MEAN_MOTION_DOT": 4.76e-05, "MEAN_MOTION_DDOT": 0}, "tle": {"line1": "1 34949U 93036AEC 25337.13316209  .00004760  00000+0  69404-3 0  9997", "line2": "2 34949  74.0167 128.4210 0080474 275.6913  83.5088 14.73888049882204"}}, "geometry": {"type": "Point", "coordinates": [-57.01886383800409, 10.766141500736083]}}]}